STARLINK-35125          
1 65534U 25200Q   26187.58336806  .00084403  00000+0  50707-2 0  9994
2 65534  97.2835 255.2168 0001560  92.3853  40.1741 15.10508530  5695
STARLINK-35133          
1 65535U 25200R   26187.18604757  .00001913  00000+0  13640-3 0  9995
2 65535  97.2827 254.9359 0001520 173.7900 186.3347 15.05659264 46963
STARLINK-35044          
1 65536U 25200S   26186.74011098  .00070634  00000+0  48190-2 0  9990
2 65536  97.2819 254.4698 0003077 123.8260 236.3261 15.05895926 46890
STARLINK-35136          
1 65537U 25200T   26187.58336806  .00085403  00000+0  51295-2 0  9991
2 65537  97.2843 255.2449 0001764  87.2726 127.7344 15.10511668  5795
STARLINK-35144          
1 65538U 25200U   26187.14729441  .00001876  00000+0  13391-3 0  9993
2 65538  97.2827 254.8340 0000295 121.1230 239.0026 15.05633322 46952
STARLINK-35110          
1 65539U 25200V   26187.17775779  .00001432  00000+0  10314-3 0  9992
2 65539  97.2832 254.9482 0002310 124.3223 235.8224 15.05651040 46966
STARLINK-35052          
1 65540U 25200W   26187.58336806  .00081324  00000+0  48894-2 0  9994
2 65540  97.2841 255.3009 0002201  94.7450 244.4573 15.10496720  5785
STARLINK-35087          
1 65541U 25200X   26187.58336806  .00084053  00000+0  50537-2 0  9994
2 65541  97.2850 255.2843 0002065  94.2602 200.8848 15.10481018  5733
STARLINK-35100          
1 65542U 25200Y   26187.16390148 -.00006168  00000+0 -42423-3 0  9997
2 65542  97.2817 254.8131 0001163 106.6043 253.5312 15.05630559 46957
STARLINK-35105          
1 65543U 25200Z   26187.52052303  .00448386  00000+0  28445-1 0  9992
2 65543  97.2841 255.2481 0001428  85.7547 274.3845 15.06944703 47018
STARLINK-35267          
1 65592U 25207A   26187.15978078 -.00003442  00000+0 -23486-3 0  9992
2 65592  97.2821 253.6725 0001703 103.5241 256.6176 15.05637818 46079
STARLINK-35269          
1 65593U 25207B   26187.19300716  .00002141  00000+0  15220-3 0  9995
2 65593  97.2837 253.7839 0001158 108.1011 252.0343 15.05652179 46088
STARLINK-35191          
1 65594U 25207C   26187.14316852  .00001725  00000+0  12346-3 0  9992
2 65594  97.2834 253.6946 0001198 133.4757 226.6570 15.05640180 45915
STARLINK-35261          
1 65595U 25207D   26187.17639459 -.00005719  00000+0 -39285-3 0  9997
2 65595  97.2825 253.8055 0001824 117.5139 242.6275 15.05643912 46098
STARLINK-35253          
1 65596U 25207E   26187.15147323  .00002617  00000+0  18524-3 0  9995
2 65596  97.2829 253.6833 0001655 114.3296 245.8105 15.05649752 45876
STARLINK-35263          
1 65597U 25207F   26187.20131687  .00003531  00000+0  24852-3 0  9995
2 65597  97.2836 253.7710 0001343 116.3177 243.8189 15.05652344 46090
STARLINK-35248          
1 65598U 25207G   26187.18470803  .00001930  00000+0  13761-3 0  9997
2 65598  97.2831 253.7942 0001900 115.4108 244.7316 15.05649883 46092
STARLINK-35245          
1 65599U 25207H   26187.16809672 -.00000342  00000+0 -19814-4 0  9990
2 65599  97.2820 253.8191 0002078  95.2167 264.9298 15.05642296 46099
STARLINK-35229          
1 65600U 25207J   26187.15700709  .00008630  00000+0  60126-3 0  9990
2 65600  97.2848 253.6797 0001408 121.6701 238.4664 15.05653868 46085
STARLINK-35234          
1 65601U 25207K   26187.14870218  .00002971  00000+0  20973-3 0  9991
2 65601  97.2833 253.6890 0000595 173.6262 186.4973 15.05649334 46087
STARLINK-35255          
1 65602U 25207L   26187.19854874  .00001393  00000+0  10046-3 0  9994
2 65602  97.2835 253.7754 0001072 141.8871 218.2432 15.05648890 46095
STARLINK-35250          
1 65603U 25207M   26187.18195166  .00000924  00000+0  67933-4 0  9993
2 65603  97.2831 253.7986 0001211  98.3162 261.8203 15.05635932 46096
STARLINK-35251          
1 65604U 25207N   26187.13761279  .00006306  00000+0  44014-3 0  9997
2 65604  97.2843 253.7045 0001274 165.1571 194.9694 15.05687117 46083
STARLINK-35171          
1 65605U 25207P   26187.19024405  .00002653  00000+0  18770-3 0  9998
2 65605  97.2834 253.7858 0000894 110.8433 249.2891 15.05652007 45933
STARLINK-35195          
1 65606U 25207Q   26187.16533036  .00000478  00000+0  37039-4 0  9994
2 65606  97.2826 253.8217 0001075  97.5437 262.5912 15.05643234 46094
STARLINK-35156          
1 65607U 25207R   26187.43669867 -.00004376  00000+0 -29973-3 0  9997
2 65607  97.2827 254.0649 0001695  86.2827 273.8595 15.05634828 46130
STARLINK-35185          
1 65608U 25207S   26187.19577474  .00001883  00000+0  13432-3 0  9994
2 65608  97.2835 253.7797 0000668 106.4320 253.6981 15.05655139 46090
STARLINK-35053          
1 65609U 25207T   26187.17917305  .00002767  00000+0  19560-3 0  9994
2 65609  97.2832 253.8033 0001741 118.4366 241.7037 15.05648631 45939
STARLINK-35178          
1 65610U 25207U   26187.20686185  .00002459  00000+0  17430-3 0  9991
2 65610  97.2835 253.7632 0001458 100.4756 259.6636 15.05644577 46093
STARLINK-35186          
1 65611U 25207V   26187.16254894  .00000050  00000+0  73558-5 0  9995
2 65611  97.2821 253.6716 0000924 130.1823 229.9485 15.05641428 46086
