OBJECT_NAME,OBJECT_ID,EPOCH,MEAN_MOTION,ECCENTRICITY,INCLINATION,RA_OF_ASC_NODE,ARG_OF_PERICENTER,MEAN_ANOMALY,EPHEMERIS_TYPE,CLASSIFICATION_TYPE,NORAD_CAT_ID,ELEMENT_SET_NO,REV_AT_EPOCH,BSTAR,MEAN_MOTION_DOT,MEAN_MOTION_DDOT
STARLINK-35125,2025-200Q,2026-07-06T14:00:03.000384,15.10508530,.00015601,97.2835,255.2168,92.3853,40.1741,0,U,65534,999,569,.50706541E-2,.84403E-3,0
STARLINK-35133,2025-200R,2026-07-06T04:27:54.510048,15.05659264,.000152,97.2827,254.9359,173.7900,186.3347,0,U,65535,999,4696,.13640158E-3,.1913E-4,0
STARLINK-35044,2025-200S,2026-07-05T17:45:45.588672,15.05895926,.00030772,97.2819,254.4698,123.8260,236.3261,0,U,65536,999,4689,.48190058E-2,.70634E-3,0
STARLINK-35136,2025-200T,2026-07-06T14:00:03.000384,15.10511668,.00017648,97.2843,255.2449,87.2726,127.7344,0,U,65537,999,579,.51295312E-2,.85403E-3,0
STARLINK-35144,2025-200U,2026-07-06T03:32:06.237024,15.05633322,.0000295,97.2827,254.8340,121.1230,239.0026,0,U,65538,999,4695,.13391E-3,.1876E-4,0
STARLINK-35110,2025-200V,2026-07-06T04:15:58.273056,15.05651040,.000231,97.2832,254.9482,124.3223,235.8224,0,U,65539,999,4696,.10314E-3,.1432E-4,0
STARLINK-35052,2025-200W,2026-07-06T14:00:03.000384,15.10496720,.00022014,97.2841,255.3009,94.7450,244.4573,0,U,65540,999,578,.48894124E-2,.81324E-3,0
STARLINK-35087,2025-200X,2026-07-06T14:00:03.000384,15.10481018,.00020653,97.2850,255.2843,94.2602,200.8848,0,U,65541,999,573,.50536652E-2,.84053E-3,0
STARLINK-35100,2025-200Y,2026-07-06T03:56:01.087872,15.05630559,.0001163,97.2817,254.8131,106.6043,253.5312,0,U,65542,999,4695,-.42423E-3,-.6168E-4,0
STARLINK-35105,2025-200Z,2026-07-06T12:29:33.189792,15.06944703,.00014283,97.2841,255.2481,85.7547,274.3845,0,U,65543,999,4701,.28445199E-1,.448386E-2,0
STARLINK-35267,2025-207A,2026-07-06T03:50:05.059392,15.05637818,.0001703,97.2821,253.6725,103.5241,256.6176,0,U,65592,999,4607,-.23486E-3,-.3442E-4,0
STARLINK-35269,2025-207B,2026-07-06T04:37:55.818624,15.05652179,.0001158,97.2837,253.7839,108.1011,252.0343,0,U,65593,999,4608,.15220455E-3,.2141E-4,0
STARLINK-35191,2025-207C,2026-07-06T03:26:09.760128,15.05640180,.0001198,97.2834,253.6946,133.4757,226.6570,0,U,65594,999,4591,.12346E-3,.1725E-4,0
STARLINK-35261,2025-207D,2026-07-06T04:14:00.492576,15.05643912,.0001824,97.2825,253.8055,117.5139,242.6275,0,U,65595,999,4609,-.39285E-3,-.5719E-4,0
STARLINK-35253,2025-207E,2026-07-06T03:38:07.287072,15.05649752,.0001655,97.2829,253.6833,114.3296,245.8105,0,U,65596,999,4587,.18524E-3,.2617E-4,0
STARLINK-35263,2025-207F,2026-07-06T04:49:53.777568,15.05652344,.00013436,97.2836,253.7710,116.3177,243.8189,0,U,65597,999,4609,.24852116E-3,.3531E-4,0
STARLINK-35248,2025-207G,2026-07-06T04:25:58.773792,15.05649883,.00019003,97.2831,253.7942,115.4108,244.7316,0,U,65598,999,4609,.13760931E-3,.193E-4,0
STARLINK-35245,2025-207H,2026-07-06T04:02:03.556608,15.05642296,.0002078,97.2820,253.8191,95.2167,264.9298,0,U,65599,999,4609,-.19813546E-4,-.342E-5,0
STARLINK-35229,2025-207J,2026-07-06T03:46:05.412576,15.05653868,.0001408,97.2848,253.6797,121.6701,238.4664,0,U,65600,999,4608,.60126E-3,.863E-4,0
STARLINK-35234,2025-207K,2026-07-06T03:34:07.868352,15.05649334,.0000595,97.2833,253.6890,173.6262,186.4973,0,U,65601,999,4608,.20973E-3,.2971E-4,0
STARLINK-35255,2025-207L,2026-07-06T04:45:54.611136,15.05648890,.00010726,97.2835,253.7754,141.8871,218.2432,0,U,65602,999,4609,.10046066E-3,.1393E-4,0
STARLINK-35250,2025-207M,2026-07-06T04:22:00.623424,15.05635932,.00012119,97.2831,253.7986,98.3162,261.8203,0,U,65603,999,4609,.67933129E-4,.924E-5,0
STARLINK-35251,2025-207N,2026-07-06T03:18:09.745056,15.05687117,.0001274,97.2843,253.7045,165.1571,194.9694,0,U,65604,999,4608,.44014E-3,.6306E-4,0
STARLINK-35171,2025-207P,2026-07-06T04:33:57.085920,15.05652007,.0000894,97.2834,253.7858,110.8433,249.2891,0,U,65605,999,4593,.18769595E-3,.2653E-4,0
STARLINK-35195,2025-207Q,2026-07-06T03:58:04.543104,15.05643234,.0001075,97.2826,253.8217,97.5437,262.5912,0,U,65606,999,4609,.37039E-4,.478E-5,0
STARLINK-35156,2025-207R,2026-07-06T10:28:50.765088,15.05634828,.00016957,97.2827,254.0649,86.2827,273.8595,0,U,65607,999,4613,-.29972614E-3,-.4376E-4,0
STARLINK-35185,2025-207S,2026-07-06T04:41:54.937536,15.05655139,.00006689,97.2835,253.7797,106.4320,253.6981,0,U,65608,999,4609,.13432268E-3,.1883E-4,0
STARLINK-35053,2025-207T,2026-07-06T04:18:00.551520,15.05648631,.00017419,97.2832,253.8033,118.4366,241.7037,0,U,65609,999,4593,.19560115E-3,.2767E-4,0
STARLINK-35178,2025-207U,2026-07-06T04:57:52.863840,15.05644577,.0001458,97.2835,253.7632,100.4756,259.6636,0,U,65610,999,4609,.17430141E-3,.2459E-4,0
STARLINK-35186,2025-207V,2026-07-06T03:54:04.228416,15.05641428,.0000924,97.2821,253.6716,130.1823,229.9485,0,U,65611,999,4608,.73558E-5,.5E-6,0
